XRISM                   
1 57800U 23137A   23337.97994446  .00004978  00000+0  39628-3 0  9994
2 57800  31.0016 179.1065 0010044  63.7112 296.4554 14.98824066 13200
